0 FENGYUN 1C DEB
1 30861U 99025AWX 13281.82752255  .00014723  00000-0  20157-2 0  9763
2 30861 099.5670 289.7009 0105383 227.7248 131.4985 14.74811019350064
0 FENGYUN 1C DEB
1 30861U 99025AWX 13283.25223030  .00021716  00000-0  29605-2 0  9774
2 30861 099.5672 291.3827 0105457 223.3407 135.9468 14.74872624350271
0 FENGYUN 1C DEB
1 30861U 99025AWX 13283.25224725  .00035622  00000-0  48551-2 0  9767
2 30861 099.5735 291.3737 0105505 223.4157 135.9189 14.74866690350274
0 FENGYUN 1C DEB
1 30861U 99025AWX 13285.21960820  .00016317  00000-0  22250-2 0  9799
2 30861 099.5672 293.7055 0105583 217.2865 142.0977 14.74932154350561
0 FENGYUN 1C DEB
1 30861U 99025AWX 13287.79743401  .00024752  00000-0  33594-2 0  9805
2 30861 099.5659 296.7492 0105542 209.3437 150.1814 14.75016806350946
0 FENGYUN 1C DEB
1 30861U 99025AWX 13289.83243415  .00023169  00000-0  31396-2 0  9812
2 30861 099.5658 299.1518 0105519 203.0898 156.5546 14.75100991351242
0 FENGYUN 1C DEB
1 30861U 99025AWX 13291.79950034  .00021844  00000-0  29556-2 0  9826
2 30861 099.5653 301.4746 0105547 197.0643 162.7002 14.75175704351530
0 FENGYUN 1C DEB
1 30861U 99025AWX 13293.22386941  .00021520  00000-0  29085-2 0  9835
2 30861 099.5655 303.1569 0105598 192.6983 167.1558 14.75223015351745
0 FENGYUN 1C DEB
1 30861U 99025AWX 13295.25860184  .00025574  00000-0  34467-2 0  9840
2 30861 099.5658 305.5598 0105614 186.4612 173.5237 14.75293326352046
